ONEWEB-0267             
1 48985U 21060U   24194.87694292 -.00000040  00000+0 -13713-3 0  9993
2 48985  87.9107   8.9887 0002000  79.8257 280.3099 13.16593052146915
ONEWEB-0268             
1 48986U 21060V   24194.99726753  .00000064  00000+0  13254-3 0  9999
2 48986  87.9106   8.9710 0001916  89.1852 270.9499 13.16593814148489
ONEWEB-0269             
1 48987U 21060W   24195.05427378 -.00000018  00000+0 -80531-4 0  9993
2 48987  87.9111   8.9857 0001891  94.1036 266.0311 13.16593898148278
ONEWEB-0270             
1 48988U 21060X   24194.91969267  .00000053  00000+0  10520-3 0  9993
2 48988  87.9104   8.9943 0001731  72.5788 287.5532 13.16593500146994
ONEWEB-0271             
1 48989U 21060Y   24195.51499684 -.00000043  00000+0 -14630-3 0  9999
2 48989  87.9108   8.8529 0001903  79.1703 280.9642 13.16593270148365
ONEWEB-0272             
1 48990U 21060Z   24194.92917305 -.00000387  00000+0 -10458-2 0  9994
2 48990  87.9104   8.9979 0001898  81.6686 278.4660 13.16594262146940
ONEWEB-0273             
1 48991U 21060AA  24194.87535403  .00000023  00000+0  25702-4 0  9999
2 48991  87.9108   8.9958 0001682  85.5149 274.6174 13.16593272148210
ONEWEB-0274             
1 48992U 21060AB  24195.20467954 -.00000014  00000+0 -69214-4 0  9991
2 48992  87.9116   8.9456 0002359  87.4536 272.6865 13.16592723148299
